[
    {
        "Altitude(m)": 568902.0108074733,
        "Argument of Periapsis(deg)": 0.0,
        "Eccentricity": 0.0,
        "Inclination(deg)": 97.0,
        "Latitude(deg)": -12.515799052826113,
        "Longitude(deg)": -98.41597517726584,
        "Mean Anomaly(deg)": 347.5862000000001,
        "RAAN(deg)": 0.0,
        "Satellite Name": "Starlink Shell 3 1640",
        "Satellite Number": 1640,
        "Semi-Major Axis(m)": 6938478.169268562,
        "Time(s)": 0
    },
    {
        "Altitude(m)": 568741.4225759484,
        "Argument of Periapsis(deg)": -0.0003965466804030246,
        "Eccentricity": 0.0,
        "Inclination(deg)": 97.0,
        "Latitude(deg)": -11.892261617652355,
        "Longitude(deg)": -98.53738427484993,
        "Mean Anomaly(deg)": 348.2116761977051,
        "RAAN(deg)": 0.00010433427400896087,
        "Satellite Name": "Starlink Shell 3 1640",
        "Satellite Number": 1640,
        "Semi-Major Axis(m)": 6938478.169268562,
        "Time(s)": 10
    },
    {
        "Altitude(m)": 568584.5709237813,
        "Argument of Periapsis(deg)": -0.0007930933608060492,
        "Eccentricity": 0.0,
        "Inclination(deg)": 97.0,
        "Latitude(deg)": -11.268652684572086,
        "Longitude(deg)": -98.65843494515404,
        "Mean Anomaly(deg)": 348.83715239541016,
        "RAAN(deg)": 0.00020866854801792175,
        "Satellite Name": "Starlink Shell 3 1640",
        "Satellite Number": 1640,
        "Semi-Major Axis(m)": 6938478.169268562,
        "Time(s)": 20
    },
    {
        "Altitude(m)": 568431.5029819014,
        "Argument of Periapsis(deg)": -0.001189640041209074,
        "Eccentricity": 0.0,
        "Inclination(deg)": 97.0,
        "Latitude(deg)": -10.644975233768003,
        "Longitude(deg)": -98.77914822428717,
        "Mean Anomaly(deg)": 349.4626285931152,
        "RAAN(deg)": 0.0003130028220268826,
        "Satellite Name": "Starlink Shell 3 1640",
        "Satellite Number": 1640,
        "Semi-Major Axis(m)": 6938478.169268562,
        "Time(s)": 30
    },
    {
        "Altitude(m)": 568282.2640012212,
        "Argument of Periapsis(deg)": -0.0015861867216120985,
        "Eccentricity": 0.0,
        "Inclination(deg)": 97.0,
        "Latitude(deg)": -10.021232243751898,
        "Longitude(deg)": -98.89954431275996,
        "Mean Anomaly(deg)": 350.08810479082024,
        "RAAN(deg)": 0.0004173370960358435,
        "Satellite Name": "Starlink Shell 3 1640",
        "Satellite Number": 1640,
        "Semi-Major Axis(m)": 6938478.169268562,
        "Time(s)": 40
    },
    {
        "Altitude(m)": 568136.8973330614,
        "Argument of Periapsis(deg)": -0.0019827334020151234,
        "Eccentricity": 0.0,
        "Inclination(deg)": 97.0,
        "Latitude(deg)": -9.397426691861865,
        "Longitude(deg)": -99.01964360610332,
        "Mean Anomaly(deg)": 350.7135809885253,
        "RAAN(deg)": 0.0005216713700448044,
        "Satellite Name": "Starlink Shell 3 1640",
        "Satellite Number": 1640,
        "Semi-Major Axis(m)": 6938478.169268562,
        "Time(s)": 50
    },
    {
        "Altitude(m)": 567995.4444105484,
        "Argument of Periapsis(deg)": -0.002379280082418148,
        "Eccentricity": 0.0,
        "Inclination(deg)": 97.0,
        "Latitude(deg)": -8.773561554710028,
        "Longitude(deg)": -99.13946621196723,
        "Mean Anomaly(deg)": 351.3390571862303,
        "RAAN(deg)": 0.0006260056440537652,
        "Satellite Name": "Starlink Shell 3 1640",
        "Satellite Number": 1640,
        "Semi-Major Axis(m)": 6938478.169268562,
        "Time(s)": 60
    },
    {
        "Altitude(m)": 567857.94473094,
        "Argument of Periapsis(deg)": -0.002775826762821173,
        "Eccentricity": 0.0,
        "Inclination(deg)": 97.0,
        "Latitude(deg)": -8.149639808584926,
        "Longitude(deg)": -99.2590314666217,
        "Mean Anomaly(deg)": 351.96453338393536,
        "RAAN(deg)": 0.0007303399180627261,
        "Satellite Name": "Starlink Shell 3 1640",
        "Satellite Number": 1640,
        "Semi-Major Axis(m)": 6938478.169268562,
        "Time(s)": 70
    },
    {
        "Altitude(m)": 567724.4358389504,
        "Argument of Periapsis(deg)": -0.003172373443224197,
        "Eccentricity": 0.0,
        "Inclination(deg)": 97.0,
        "Latitude(deg)": -7.525664429809747,
        "Longitude(deg)": -99.37835896378073,
        "Mean Anomaly(deg)": 352.5900095816404,
        "RAAN(deg)": 0.000834674192071687,
        "Satellite Name": "Starlink Shell 3 1640",
        "Satellite Number": 1640,
        "Semi-Major Axis(m)": 6938478.169268562,
        "Time(s)": 80
    },
    {
        "Altitude(m)": 567594.953311065,
        "Argument of Periapsis(deg)": -0.0035689201236272223,
        "Eccentricity": 0.0,
        "Inclination(deg)": 97.0,
        "Latitude(deg)": -6.901638395061912,
        "Longitude(deg)": -99.4974680700478,
        "Mean Anomaly(deg)": 353.21548577934544,
        "RAAN(deg)": 0.0009390084660806479,
        "Satellite Name": "Starlink Shell 3 1640",
        "Satellite Number": 1640,
        "Semi-Major Axis(m)": 6938478.169268562,
        "Time(s)": 90
    },
    {
        "Altitude(m)": 567469.5307408114,
        "Argument of Periapsis(deg)": -0.003965466804030247,
        "Eccentricity": 0.0,
        "Inclination(deg)": 97.0,
        "Latitude(deg)": -6.277564681657159,
        "Longitude(deg)": -99.61637743989793,
        "Mean Anomaly(deg)": 353.8409619770505,
        "RAAN(deg)": 0.0010433427400896088,
        "Satellite Name": "Starlink Shell 3 1640",
        "Satellite Number": 1640,
        "Semi-Major Axis(m)": 6938478.169268562,
        "Time(s)": 100
    },
    {
        "Altitude(m)": 567348.1997250859,
        "Argument of Periapsis(deg)": -0.004362013484433271,
        "Eccentricity": 0.0,
        "Inclination(deg)": 97.0,
        "Latitude(deg)": -5.653446267798359,
        "Longitude(deg)": -99.735106043114,
        "Mean Anomaly(deg)": 354.4664381747556,
        "RAAN(deg)": 0.0011476770140985695,
        "Satellite Name": "Starlink Shell 3 1640",
        "Satellite Number": 1640,
        "Semi-Major Axis(m)": 6938478.169268562,
        "Time(s)": 110
    },
    {
        "Altitude(m)": 567230.9898514426,
        "Argument of Periapsis(deg)": -0.004758560164836296,
        "Eccentricity": 0.0,
        "Inclination(deg)": 97.0,
        "Latitude(deg)": -5.02928613279618,
        "Longitude(deg)": -99.85367267896795,
        "Mean Anomaly(deg)": 355.09191437246056,
        "RAAN(deg)": 0.0012520112881075304,
        "Satellite Name": "Starlink Shell 3 1640",
        "Satellite Number": 1640,
        "Semi-Major Axis(m)": 6938478.169268562,
        "Time(s)": 120
    },
    {
        "Altitude(m)": 567117.928686417,
        "Argument of Periapsis(deg)": -0.005155106845239321,
        "Eccentricity": 0.0,
        "Inclination(deg)": 97.0,
        "Latitude(deg)": -4.40508725726117,
        "Longitude(deg)": -99.97209549006118,
        "Mean Anomaly(deg)": 355.7173905701656,
        "RAAN(deg)": 0.0013563455621164913,
        "Satellite Name": "Starlink Shell 3 1640",
        "Satellite Number": 1640,
        "Semi-Major Axis(m)": 6938478.169268562,
        "Time(s)": 130
    },
    {
        "Altitude(m)": 567009.0417648896,
        "Argument of Periapsis(deg)": -0.005551653525642346,
        "Eccentricity": 0.0,
        "Inclination(deg)": 97.0,
        "Latitude(deg)": -3.780852623271967,
        "Longitude(deg)": -100.09039298873395,
        "Mean Anomaly(deg)": 356.34286676787065,
        "RAAN(deg)": 0.0014606798361254522,
        "Satellite Name": "Starlink Shell 3 1640",
        "Satellite Number": 1640,
        "Semi-Major Axis(m)": 6938478.169268562,
        "Time(s)": 140
    },
    {
        "Altitude(m)": 566904.3525804562,
        "Argument of Periapsis(deg)": -0.005948200206045371,
        "Eccentricity": 0.0,
        "Inclination(deg)": 97.0,
        "Latitude(deg)": -3.156585214521823,
        "Longitude(deg)": -100.20858357033438,
        "Mean Anomaly(deg)": 356.9683429655757,
        "RAAN(deg)": 0.0015650141101344129,
        "Satellite Name": "Starlink Shell 3 1640",
        "Satellite Number": 1640,
        "Semi-Major Axis(m)": 6938478.169268562,
        "Time(s)": 150
    },
    {
        "Altitude(m)": 566803.8825768386,
        "Argument of Periapsis(deg)": -0.006344746886448394,
        "Eccentricity": 0.0,
        "Inclination(deg)": 97.0,
        "Latitude(deg)": -2.53228801644623,
        "Longitude(deg)": -100.32668502625569,
        "Mean Anomaly(deg)": 357.5938191632807,
        "RAAN(deg)": 0.001669348384143374,
        "Satellite Name": "Starlink Shell 3 1640",
        "Satellite Number": 1640,
        "Semi-Major Axis(m)": 6938478.169268562,
        "Time(s)": 160
    },
    {
        "Altitude(m)": 566707.6511403542,
        "Argument of Periapsis(deg)": -0.00674129356685142,
        "Eccentricity": 0.0,
        "Inclination(deg)": 97.0,
        "Latitude(deg)": -1.9079640163340326,
        "Longitude(deg)": -100.44471556965054,
        "Mean Anomaly(deg)": 358.21929536098577,
        "RAAN(deg)": 0.001773682658152335,
        "Satellite Name": "Starlink Shell 3 1640",
        "Satellite Number": 1640,
        "Semi-Major Axis(m)": 6938478.169268562,
        "Time(s)": 170
    },
    {
        "Altitude(m)": 566615.6755934093,
        "Argument of Periapsis(deg)": -0.007137840247254445,
        "Eccentricity": 0.0,
        "Inclination(deg)": 97.0,
        "Latitude(deg)": -1.283616203425368,
        "Longitude(deg)": -100.56269334810958,
        "Mean Anomaly(deg)": 358.84477155869087,
        "RAAN(deg)": 0.0018780169321612958,
        "Satellite Name": "Starlink Shell 3 1640",
        "Satellite Number": 1640,
        "Semi-Major Axis(m)": 6938478.169268562,
        "Time(s)": 180
    }
]